[{"OBJECT_NAME":"TIANMU-1 20","OBJECT_ID":"2023-208B","EPOCH":"2026-03-09T21:50:45.859200","MEAN_MOTION":15.31029249,"ECCENTRICITY":0.00061925,"INCLINATION":97.4323,"RA_OF_ASC_NODE":185.4313,"ARG_OF_PERICENTER":324.1763,"MEAN_ANOMALY":35.9062,"EPHEMERIS_TYPE":0,"CLASSIFICATION_TYPE":"U","NORAD_CAT_ID":58661,"ELEMENT_SET_NO":999,"REV_AT_EPOCH":12222,"BSTAR":0.0003681641,"MEAN_MOTION_DOT":0.00010969,"MEAN_MOTION_DDOT":0},{"OBJECT_NAME":"STARLINK-35859","OBJECT_ID":"2025-303Y","EPOCH":"2026-03-09T01:34:32.725920","MEAN_MOTION":15.27586117,"ECCENTRICITY":0.00016597,"INCLINATION":43.0016,"RA_OF_ASC_NODE":313.8994,"ARG_OF_PERICENTER":262.5678,"MEAN_ANOMALY":97.4985,"EPHEMERIS_TYPE":0,"CLASSIFICATION_TYPE":"U","NORAD_CAT_ID":67185,"ELEMENT_SET_NO":999,"REV_AT_EPOCH":1264,"BSTAR":0.0013759151,"MEAN_MOTION_DOT":0.00037802,"MEAN_MOTION_DDOT":0}]
